LANDSAT 9               
1 49260U 21088A   24102.42439506  .00000501  00000+0  12110-3 0  9995
2 49260  98.1912 173.1611 0001343  83.4692 276.6659 14.57124653134979
